[{
    "OBJECT_NAME": "GPS BIIF-4  (PRN 27)",
    "OBJECT_ID": "2013-023A",
    "EPOCH": "2020-08-28T05:16:50.201472",
    "MEAN_MOTION": 2.00564388,
    "ECCENTRICITY": 0.0082069,
    "INCLINATION": 56.0209,
    "RA_OF_ASC_NODE": 353.9554,
    "ARG_OF_PERICENTER": 31.9016,
    "MEAN_ANOMALY": 328.6012,
    "EPHEMERIS_TYPE": 0,
    "CLASSIFICATION_TYPE": "U",
    "NORAD_CAT_ID": 39166,
    "ELEMENT_SET_NO": 999,
    "REV_AT_EPOCH": 5337,
    "BSTAR": 0,
    "MEAN_MOTION_DOT": -1.08e-6,
    "MEAN_MOTION_DDOT": 0
},{
    "OBJECT_NAME": "GPS BIIF-5  (PRN 30)",
    "OBJECT_ID": "2014-008A",
    "EPOCH": "2020-08-30T05:08:29.783040",
    "MEAN_MOTION": 2.00571702,
    "ECCENTRICITY": 0.0048648,
    "INCLINATION": 53.7487,
    "RA_OF_ASC_NODE": 235.7332,
    "ARG_OF_PERICENTER": 201.6252,
    "MEAN_ANOMALY": 158.1713,
    "EPHEMERIS_TYPE": 0,
    "CLASSIFICATION_TYPE": "U",
    "NORAD_CAT_ID": 39533,
    "ELEMENT_SET_NO": 999,
    "REV_AT_EPOCH": 4777,
    "BSTAR": 0,
    "MEAN_MOTION_DOT": 2.8e-7,
    "MEAN_MOTION_DDOT": 0
},{
    "OBJECT_NAME": "GPS BIIF-6  (PRN 06)",
    "OBJECT_ID": "2014-026A",
    "EPOCH": "2020-08-30T11:49:33.796992",
    "MEAN_MOTION": 2.00572125,
    "ECCENTRICITY": 0.0019737,
    "INCLINATION": 56.2016,
    "RA_OF_ASC_NODE": 53.8885,
    "ARG_OF_PERICENTER": 293.5641,
    "MEAN_ANOMALY": 66.2633,
    "EPHEMERIS_TYPE": 0,
    "CLASSIFICATION_TYPE": "U",
    "NORAD_CAT_ID": 39741,
    "ELEMENT_SET_NO": 999,
    "REV_AT_EPOCH": 4607,
    "BSTAR": 0,
    "MEAN_MOTION_DOT": -4.8e-7,
    "MEAN_MOTION_DDOT": 0
},{
    "OBJECT_NAME": "GPS BIIF-7  (PRN 09)",
    "OBJECT_ID": "2014-045A",
    "EPOCH": "2020-08-28T14:11:19.133952",
    "MEAN_MOTION": 2.00564075,
    "ECCENTRICITY": 0.0014669,
    "INCLINATION": 54.5955,
    "RA_OF_ASC_NODE": 173.0694,
    "ARG_OF_PERICENTER": 102.7033,
    "MEAN_ANOMALY": 257.4447,
    "EPHEMERIS_TYPE": 0,
    "CLASSIFICATION_TYPE": "U",
    "NORAD_CAT_ID": 40105,
    "ELEMENT_SET_NO": 999,
    "REV_AT_EPOCH": 4447,
    "BSTAR": 0,
    "MEAN_MOTION_DOT": -4.0e-7,
    "MEAN_MOTION_DDOT": 0
},{
    "OBJECT_NAME": "GPS BIIF-8  (PRN 03)",
    "OBJECT_ID": "2014-068A",
    "EPOCH": "2020-08-27T23:03:26.642592",
    "MEAN_MOTION": 2.00553358,
    "ECCENTRICITY": 0.0030172,
    "INCLINATION": 55.3783,
    "RA_OF_ASC_NODE": 114.0391,
    "ARG_OF_PERICENTER": 45.3375,
    "MEAN_ANOMALY": 314.9803,
    "EPHEMERIS_TYPE": 0,
    "CLASSIFICATION_TYPE": "U",
    "NORAD_CAT_ID": 40294,
    "ELEMENT_SET_NO": 999,
    "REV_AT_EPOCH": 4268,
    "BSTAR": 0,
    "MEAN_MOTION_DOT": -4.1e-7,
    "MEAN_MOTION_DDOT": 0
},{
    "OBJECT_NAME": "GPS BIIF-9  (PRN 26)",
    "OBJECT_ID": "2015-013A",
    "EPOCH": "2020-08-28T02:19:26.716800",
    "MEAN_MOTION": 2.00563937,
    "ECCENTRICITY": 0.0048355,
    "INCLINATION": 54.1723,
    "RA_OF_ASC_NODE": 291.9178,
    "ARG_OF_PERICENTER": 8.8869,
    "MEAN_ANOMALY": 351.2672,
    "EPHEMERIS_TYPE": 0,
    "CLASSIFICATION_TYPE": "U",
    "NORAD_CAT_ID": 40534,
    "ELEMENT_SET_NO": 999,
    "REV_AT_EPOCH": 3975,
    "BSTAR": 0,
    "MEAN_MOTION_DOT": -8.0e-8,
    "MEAN_MOTION_DDOT": 0
},{
    "OBJECT_NAME": "GPS BIIF-10 (PRN 08)",
    "OBJECT_ID": "2015-033A",
    "EPOCH": "2020-08-30T06:04:11.230464",
    "MEAN_MOTION": 2.00559228,
    "ECCENTRICITY": 0.0054338,
    "INCLINATION": 55.5353,
    "RA_OF_ASC_NODE": 353.0127,
    "ARG_OF_PERICENTER": 354.0351,
    "MEAN_ANOMALY": 5.911,
    "EPHEMERIS_TYPE": 0,
    "CLASSIFICATION_TYPE": "U",
    "NORAD_CAT_ID": 40730,
    "ELEMENT_SET_NO": 999,
    "REV_AT_EPOCH": 3755,
    "BSTAR": 0,
    "MEAN_MOTION_DOT": -1.1e-6,
    "MEAN_MOTION_DDOT": 0
},{
    "OBJECT_NAME": "GPS BIIF-11 (PRN 10)",
    "OBJECT_ID": "2015-062A",
    "EPOCH": "2020-08-29T19:17:58.128864",
    "MEAN_MOTION": 2.005642,
    "ECCENTRICITY": 0.0059388,
    "INCLINATION": 55.3751,
    "RA_OF_ASC_NODE": 113.7938,
    "ARG_OF_PERICENTER": 209.6357,
    "MEAN_ANOMALY": 150.1052,
    "EPHEMERIS_TYPE": 0,
    "CLASSIFICATION_TYPE": "U",
    "NORAD_CAT_ID": 41019,
    "ELEMENT_SET_NO": 999,
    "REV_AT_EPOCH": 3536,
    "BSTAR": 0,
    "MEAN_MOTION_DOT": -2.7e-7,
    "MEAN_MOTION_DDOT": 0
},{
    "OBJECT_NAME": "GPS BIIF-12 (PRN 32)",
    "OBJECT_ID": "2016-007A",
    "EPOCH": "2020-08-29T09:37:39.769536",
    "MEAN_MOTION": 2.00554358,
    "ECCENTRICITY": 0.0042599,
    "INCLINATION": 54.8296,
    "RA_OF_ASC_NODE": 173.5424,
    "ARG_OF_PERICENTER": 222.2902,
    "MEAN_ANOMALY": 137.3636,
    "EPHEMERIS_TYPE": 0,
    "CLASSIFICATION_TYPE": "U",
    "NORAD_CAT_ID": 41328,
    "ELEMENT_SET_NO": 999,
    "REV_AT_EPOCH": 3341,
    "BSTAR": 0,
    "MEAN_MOTION_DOT": -4.6e-7,
    "MEAN_MOTION_DDOT": 0
},{
    "OBJECT_NAME": "GPS BIII-1  (PRN 04)",
    "OBJECT_ID": "2018-109A",
    "EPOCH": "2020-08-30T10:15:36.953856",
    "MEAN_MOTION": 2.00567481,
    "ECCENTRICITY": 0.0009087,
    "INCLINATION": 55.0108,
    "RA_OF_ASC_NODE": 175.7842,
    "ARG_OF_PERICENTER": 213.3352,
    "MEAN_ANOMALY": 63.2248,
    "EPHEMERIS_TYPE": 0,
    "CLASSIFICATION_TYPE": "U",
    "NORAD_CAT_ID": 43873,
    "ELEMENT_SET_NO": 999,
    "REV_AT_EPOCH": 1265,
    "BSTAR": 0,
    "MEAN_MOTION_DOT": -4.6e-7,
    "MEAN_MOTION_DDOT": 0
},{
    "OBJECT_NAME": "GPS BIII-2  (PRN 18)",
    "OBJECT_ID": "2019-056A",
    "EPOCH": "2020-08-28T10:21:03.633120",
    "MEAN_MOTION": 2.00559073,
    "ECCENTRICITY": 0.0008783,
    "INCLINATION": 55.2885,
    "RA_OF_ASC_NODE": 55.3487,
    "ARG_OF_PERICENTER": 167.6635,
    "MEAN_ANOMALY": 10.2761,
    "EPHEMERIS_TYPE": 0,
    "CLASSIFICATION_TYPE": "U",
    "NORAD_CAT_ID": 44506,
    "ELEMENT_SET_NO": 999,
    "REV_AT_EPOCH": 757,
    "BSTAR": 0,
    "MEAN_MOTION_DOT": -4.5e-7,
    "MEAN_MOTION_DDOT": 0
}]
